NUSAT-48 (HENRIETTA LE*)
1 60498U 24149AG  26068.80506098  .00012988  00000+0  45212-3 0  9999
2 60498  97.3923 150.8264 0002754 263.3026  96.7901 15.29812597 86946
STARLINK-34582          
1 64781U 25147AC  26068.74858824  .00023987  00000+0  81938-3 0  9993
2 64781  53.1591 242.2635 0000920  68.7864 291.3235 15.30200104 38693
